[{"OBJECT_NAME":"STARLINK-35660","OBJECT_ID":"2025-293A","EPOCH":"2026-03-09T11:52:20.599968","MEAN_MOTION":14.98333771,"ECCENTRICITY":0.0003498,"INCLINATION":70.0002,"RA_OF_ASC_NODE":95.1494,"ARG_OF_PERICENTER":266.2084,"MEAN_ANOMALY":93.8675,"EPHEMERIS_TYPE":0,"CLASSIFICATION_TYPE":"U","NORAD_CAT_ID":67003,"ELEMENT_SET_NO":999,"REV_AT_EPOCH":1485,"BSTAR":0.00016551184,"MEAN_MOTION_DOT":1.883e-5,"MEAN_MOTION_DDOT":0},{"OBJECT_NAME":"NOAA 16 DEB","OBJECT_ID":"2000-055PP","EPOCH":"2026-03-07T09:37:02.399808","MEAN_MOTION":14.94870962,"ECCENTRICITY":0.00127779,"INCLINATION":98.9453,"RA_OF_ASC_NODE":285.7448,"ARG_OF_PERICENTER":347.412,"MEAN_ANOMALY":12.6776,"EPHEMERIS_TYPE":0,"CLASSIFICATION_TYPE":"U","NORAD_CAT_ID":41709,"ELEMENT_SET_NO":999,"REV_AT_EPOCH":51965,"BSTAR":0.009194972,"MEAN_MOTION_DOT":0.00101727,"MEAN_MOTION_DDOT":0}]
